[{"OBJECT_NAME":"STARLINK-11285 [DTC]","OBJECT_ID":"2024-187E","EPOCH":"2026-03-09T21:13:22.914336","MEAN_MOTION":15.6969536,"ECCENTRICITY":9.972e-5,"INCLINATION":53.1589,"RA_OF_ASC_NODE":295.0889,"ARG_OF_PERICENTER":73.79,"MEAN_ANOMALY":286.3227,"EPHEMERIS_TYPE":0,"CLASSIFICATION_TYPE":"U","NORAD_CAT_ID":61578,"ELEMENT_SET_NO":999,"REV_AT_EPOCH":8073,"BSTAR":1.921585e-6,"MEAN_MOTION_DOT":-3.56e-6,"MEAN_MOTION_DDOT":0},{"OBJECT_NAME":"CZ-2D DEB","OBJECT_ID":"2005-024K","EPOCH":"2026-03-07T20:58:14.771712","MEAN_MOTION":15.70813446,"ECCENTRICITY":0.0005756,"INCLINATION":97.1809,"RA_OF_ASC_NODE":100.1703,"ARG_OF_PERICENTER":144.4044,"MEAN_ANOMALY":215.7604,"EPHEMERIS_TYPE":0,"CLASSIFICATION_TYPE":"U","NORAD_CAT_ID":35271,"ELEMENT_SET_NO":999,"REV_AT_EPOCH":8871,"BSTAR":0.00070506615,"MEAN_MOTION_DOT":0.00088213,"MEAN_MOTION_DDOT":0}]
